[{"OBJECT_NAME":"STARLINK-35644","OBJECT_ID":"2025-257Y","EPOCH":"2026-03-09T15:21:41.019840","MEAN_MOTION":15.3019286,"ECCENTRICITY":9.9e-5,"INCLINATION":53.1577,"RA_OF_ASC_NODE":217.407,"ARG_OF_PERICENTER":86.7928,"MEAN_ANOMALY":273.3186,"EPHEMERIS_TYPE":0,"CLASSIFICATION_TYPE":"U","NORAD_CAT_ID":66402,"ELEMENT_SET_NO":999,"REV_AT_EPOCH":1971,"BSTAR":0.00039372,"MEAN_MOTION_DOT":0.00011317,"MEAN_MOTION_DDOT":0},{"OBJECT_NAME":"OBJECT BE","OBJECT_ID":"2025-313BE","EPOCH":"2026-03-09T16:43:59.380320","MEAN_MOTION":15.29801687,"ECCENTRICITY":0.00072083,"INCLINATION":97.3989,"RA_OF_ASC_NODE":145.3568,"ARG_OF_PERICENTER":335.3714,"MEAN_ANOMALY":24.7181,"EPHEMERIS_TYPE":0,"CLASSIFICATION_TYPE":"U","NORAD_CAT_ID":67482,"ELEMENT_SET_NO":999,"REV_AT_EPOCH":797,"BSTAR":0.0026504328,"MEAN_MOTION_DOT":0.00077178,"MEAN_MOTION_DDOT":0}]
